ORBCOMM FM05            
1 25117U 97084F   24167.88958896  .00002477  00000+0  77612-3 0  9990
2 25117  45.0164 322.8776 0003772 195.0712 165.0026 14.42940734387643
ORBCOMM FM06            
1 25118U 97084G   24167.87704064  .00002855  00000+0  88662-3 0  9993
2 25118  45.0156 323.0869 0003126 204.8097 311.0295 14.43006467388558
ORBCOMM FM07            
1 25119U 97084H   24167.84049818  .00002433  00000+0  76355-3 0  9998
2 25119  45.0151 323.8198 0004334 184.6429 175.4382 14.42912571388542
ORBCOMM FM03            
1 25158U 98007B   24167.76842682  .00001418  00000+0  56611-3 0  9993
2 25158 107.9705 103.9661 0046288 170.1833 190.0220 14.32320895371539
ORBCOMM FM04            
1 25159U 98007C   24167.75033209  .00001534  00000+0  60674-3 0  9993
2 25159 107.9690 106.8904 0041815 168.0716 192.1423 14.32590262371706
ORBCOMM FM17            
1 25413U 98046A   24167.73863072  .00000972  00000+0  40044-3 0  9990
2 25413  44.9930 184.7443 0002641 231.9992 128.0616 14.33287469350565
ORBCOMM FM18            
1 25414U 98046B   24167.87141560  .00002093  00000+0  76045-3 0  9993
2 25414  44.9935 110.4327 0004183 257.9579 102.0800 14.36096914351542
ORBCOMM FM19            
1 25415U 98046C   24167.84706073  .00002160  00000+0  78590-3 0  9999
2 25415  44.9936 112.0082 0002953 257.8372 129.8671 14.35931886351507
