<?xml version="1.0" encoding="UTF-8"?>
<ndm xmlns:xsi="http://www.w3.org/2001/XMLSchema-instance" xsi:noNamespaceSchemaLocation="https://sanaregistry.org/r/ndmxml_unqualified/ndmxml-2.0.0-master-2.0.xsd">
<omm id="CCSDS_OMM_VERS" version="2.0">
<header><CREATION_DATE/><ORIGINATOR/></header><body><segment><metadata><OBJECT_NAME>ORBCOMM FM05</OBJECT_NAME><OBJECT_ID>1997-084F</OBJECT_ID><CENTER_NAME>EARTH</CENTER_NAME><REF_FRAME>TEME</REF_FRAME><TIME_SYSTEM>UTC</TIME_SYSTEM><MEAN_ELEMENT_THEORY>SGP4</MEAN_ELEMENT_THEORY></metadata><data><meanElements><EPOCH>2024-06-15T21:21:00.486144</EPOCH><MEAN_MOTION>14.42940734</MEAN_MOTION><ECCENTRICITY>.0003772</ECCENTRICITY><INCLINATION>45.0164</INCLINATION><RA_OF_ASC_NODE>322.8776</RA_OF_ASC_NODE><ARG_OF_PERICENTER>195.0712</ARG_OF_PERICENTER><MEAN_ANOMALY>165.0026</MEAN_ANOMALY></meanElements><tleParameters><EPHEMERIS_TYPE>0</EPHEMERIS_TYPE><CLASSIFICATION_TYPE>U</CLASSIFICATION_TYPE><NORAD_CAT_ID>25117</NORAD_CAT_ID><ELEMENT_SET_NO>999</ELEMENT_SET_NO><REV_AT_EPOCH>38764</REV_AT_EPOCH><BSTAR>.77612E-3</BSTAR><MEAN_MOTION_DOT>.2477E-4</MEAN_MOTION_DOT><MEAN_MOTION_DDOT>0</MEAN_MOTION_DDOT></tleParameters></data></segment></body></omm>
<omm id="CCSDS_OMM_VERS" version="2.0">
<header><CREATION_DATE/><ORIGINATOR/></header><body><segment><metadata><OBJECT_NAME>ORBCOMM FM06</OBJECT_NAME><OBJECT_ID>1997-084G</OBJECT_ID><CENTER_NAME>EARTH</CENTER_NAME><REF_FRAME>TEME</REF_FRAME><TIME_SYSTEM>UTC</TIME_SYSTEM><MEAN_ELEMENT_THEORY>SGP4</MEAN_ELEMENT_THEORY></metadata><data><meanElements><EPOCH>2024-06-15T21:02:56.311296</EPOCH><MEAN_MOTION>14.43006467</MEAN_MOTION><ECCENTRICITY>.0003126</ECCENTRICITY><INCLINATION>45.0156</INCLINATION><RA_OF_ASC_NODE>323.0869</RA_OF_ASC_NODE><ARG_OF_PERICENTER>204.8097</ARG_OF_PERICENTER><MEAN_ANOMALY>311.0295</MEAN_ANOMALY></meanElements><tleParameters><EPHEMERIS_TYPE>0</EPHEMERIS_TYPE><CLASSIFICATION_TYPE>U</CLASSIFICATION_TYPE><NORAD_CAT_ID>25118</NORAD_CAT_ID><ELEMENT_SET_NO>999</ELEMENT_SET_NO><REV_AT_EPOCH>38855</REV_AT_EPOCH><BSTAR>.88662E-3</BSTAR><MEAN_MOTION_DOT>.2855E-4</MEAN_MOTION_DOT><MEAN_MOTION_DDOT>0</MEAN_MOTION_DDOT></tleParameters></data></segment></body></omm>
<omm id="CCSDS_OMM_VERS" version="2.0">
<header><CREATION_DATE/><ORIGINATOR/></header><body><segment><metadata><OBJECT_NAME>ORBCOMM FM07</OBJECT_NAME><OBJECT_ID>1997-084H</OBJECT_ID><CENTER_NAME>EARTH</CENTER_NAME><REF_FRAME>TEME</REF_FRAME><TIME_SYSTEM>UTC</TIME_SYSTEM><MEAN_ELEMENT_THEORY>SGP4</MEAN_ELEMENT_THEORY></metadata><data><meanElements><EPOCH>2024-06-15T20:10:19.042752</EPOCH><MEAN_MOTION>14.42912571</MEAN_MOTION><ECCENTRICITY>.0004334</ECCENTRICITY><INCLINATION>45.0151</INCLINATION><RA_OF_ASC_NODE>323.8198</RA_OF_ASC_NODE><ARG_OF_PERICENTER>184.6429</ARG_OF_PERICENTER><MEAN_ANOMALY>175.4382</MEAN_ANOMALY></meanElements><tleParameters><EPHEMERIS_TYPE>0</EPHEMERIS_TYPE><CLASSIFICATION_TYPE>U</CLASSIFICATION_TYPE><NORAD_CAT_ID>25119</NORAD_CAT_ID><ELEMENT_SET_NO>999</ELEMENT_SET_NO><REV_AT_EPOCH>38854</REV_AT_EPOCH><BSTAR>.76355E-3</BSTAR><MEAN_MOTION_DOT>.2433E-4</MEAN_MOTION_DOT><MEAN_MOTION_DDOT>0</MEAN_MOTION_DDOT></tleParameters></data></segment></body></omm>
<omm id="CCSDS_OMM_VERS" version="2.0">
<header><CREATION_DATE/><ORIGINATOR/></header><body><segment><metadata><OBJECT_NAME>ORBCOMM FM03</OBJECT_NAME><OBJECT_ID>1998-007B</OBJECT_ID><CENTER_NAME>EARTH</CENTER_NAME><REF_FRAME>TEME</REF_FRAME><TIME_SYSTEM>UTC</TIME_SYSTEM><MEAN_ELEMENT_THEORY>SGP4</MEAN_ELEMENT_THEORY></metadata><data><meanElements><EPOCH>2024-06-15T18:26:32.077248</EPOCH><MEAN_MOTION>14.32320895</MEAN_MOTION><ECCENTRICITY>.0046288</ECCENTRICITY><INCLINATION>107.9705</INCLINATION><RA_OF_ASC_NODE>103.9661</RA_OF_ASC_NODE><ARG_OF_PERICENTER>170.1833</ARG_OF_PERICENTER><MEAN_ANOMALY>190.0220</MEAN_ANOMALY></meanElements><tleParameters><EPHEMERIS_TYPE>0</EPHEMERIS_TYPE><CLASSIFICATION_TYPE>U</CLASSIFICATION_TYPE><NORAD_CAT_ID>25158</NORAD_CAT_ID><ELEMENT_SET_NO>999</ELEMENT_SET_NO><REV_AT_EPOCH>37153</REV_AT_EPOCH><BSTAR>.56611E-3</BSTAR><MEAN_MOTION_DOT>.1418E-4</MEAN_MOTION_DOT><MEAN_MOTION_DDOT>0</MEAN_MOTION_DDOT></tleParameters></data></segment></body></omm>
<omm id="CCSDS_OMM_VERS" version="2.0">
<header><CREATION_DATE/><ORIGINATOR/></header><body><segment><metadata><OBJECT_NAME>ORBCOMM FM04</OBJECT_NAME><OBJECT_ID>1998-007C</OBJECT_ID><CENTER_NAME>EARTH</CENTER_NAME><REF_FRAME>TEME</REF_FRAME><TIME_SYSTEM>UTC</TIME_SYSTEM><MEAN_ELEMENT_THEORY>SGP4</MEAN_ELEMENT_THEORY></metadata><data><meanElements><EPOCH>2024-06-15T18:00:28.692576</EPOCH><MEAN_MOTION>14.32590262</MEAN_MOTION><ECCENTRICITY>.0041815</ECCENTRICITY><INCLINATION>107.9690</INCLINATION><RA_OF_ASC_NODE>106.8904</RA_OF_ASC_NODE><ARG_OF_PERICENTER>168.0716</ARG_OF_PERICENTER><MEAN_ANOMALY>192.1423</MEAN_ANOMALY></meanElements><tleParameters><EPHEMERIS_TYPE>0</EPHEMERIS_TYPE><CLASSIFICATION_TYPE>U</CLASSIFICATION_TYPE><NORAD_CAT_ID>25159</NORAD_CAT_ID><ELEMENT_SET_NO>999</ELEMENT_SET_NO><REV_AT_EPOCH>37170</REV_AT_EPOCH><BSTAR>.60674E-3</BSTAR><MEAN_MOTION_DOT>.1534E-4</MEAN_MOTION_DOT><MEAN_MOTION_DDOT>0</MEAN_MOTION_DDOT></tleParameters></data></segment></body></omm>
<omm id="CCSDS_OMM_VERS" version="2.0">
<header><CREATION_DATE/><ORIGINATOR/></header><body><segment><metadata><OBJECT_NAME>ORBCOMM FM17</OBJECT_NAME><OBJECT_ID>1998-046A</OBJECT_ID><CENTER_NAME>EARTH</CENTER_NAME><REF_FRAME>TEME</REF_FRAME><TIME_SYSTEM>UTC</TIME_SYSTEM><MEAN_ELEMENT_THEORY>SGP4</MEAN_ELEMENT_THEORY></metadata><data><meanElements><EPOCH>2024-06-15T17:43:37.694208</EPOCH><MEAN_MOTION>14.33287469</MEAN_MOTION><ECCENTRICITY>.0002641</ECCENTRICITY><INCLINATION>44.9930</INCLINATION><RA_OF_ASC_NODE>184.7443</RA_OF_ASC_NODE><ARG_OF_PERICENTER>231.9992</ARG_OF_PERICENTER><MEAN_ANOMALY>128.0616</MEAN_ANOMALY></meanElements><tleParameters><EPHEMERIS_TYPE>0</EPHEMERIS_TYPE><CLASSIFICATION_TYPE>U</CLASSIFICATION_TYPE><NORAD_CAT_ID>25413</NORAD_CAT_ID><ELEMENT_SET_NO>999</ELEMENT_SET_NO><REV_AT_EPOCH>35056</REV_AT_EPOCH><BSTAR>.40044E-3</BSTAR><MEAN_MOTION_DOT>.972E-5</MEAN_MOTION_DOT><MEAN_MOTION_DDOT>0</MEAN_MOTION_DDOT></tleParameters></data></segment></body></omm>
<omm id="CCSDS_OMM_VERS" version="2.0">
<header><CREATION_DATE/><ORIGINATOR/></header><body><segment><metadata><OBJECT_NAME>ORBCOMM FM18</OBJECT_NAME><OBJECT_ID>1998-046B</OBJECT_ID><CENTER_NAME>EARTH</CENTER_NAME><REF_FRAME>TEME</REF_FRAME><TIME_SYSTEM>UTC</TIME_SYSTEM><MEAN_ELEMENT_THEORY>SGP4</MEAN_ELEMENT_THEORY></metadata><data><meanElements><EPOCH>2024-06-15T20:54:50.307840</EPOCH><MEAN_MOTION>14.36096914</MEAN_MOTION><ECCENTRICITY>.0004183</ECCENTRICITY><INCLINATION>44.9935</INCLINATION><RA_OF_ASC_NODE>110.4327</RA_OF_ASC_NODE><ARG_OF_PERICENTER>257.9579</ARG_OF_PERICENTER><MEAN_ANOMALY>102.0800</MEAN_ANOMALY></meanElements><tleParameters><EPHEMERIS_TYPE>0</EPHEMERIS_TYPE><CLASSIFICATION_TYPE>U</CLASSIFICATION_TYPE><NORAD_CAT_ID>25414</NORAD_CAT_ID><ELEMENT_SET_NO>999</ELEMENT_SET_NO><REV_AT_EPOCH>35154</REV_AT_EPOCH><BSTAR>.76045E-3</BSTAR><MEAN_MOTION_DOT>.2093E-4</MEAN_MOTION_DOT><MEAN_MOTION_DDOT>0</MEAN_MOTION_DDOT></tleParameters></data></segment></body></omm>
<omm id="CCSDS_OMM_VERS" version="2.0">
<header><CREATION_DATE/><ORIGINATOR/></header><body><segment><metadata><OBJECT_NAME>ORBCOMM FM19</OBJECT_NAME><OBJECT_ID>1998-046C</OBJECT_ID><CENTER_NAME>EARTH</CENTER_NAME><REF_FRAME>TEME</REF_FRAME><TIME_SYSTEM>UTC</TIME_SYSTEM><MEAN_ELEMENT_THEORY>SGP4</MEAN_ELEMENT_THEORY></metadata><data><meanElements><EPOCH>2024-06-15T20:19:46.047072</EPOCH><MEAN_MOTION>14.35931886</MEAN_MOTION><ECCENTRICITY>.0002953</ECCENTRICITY><INCLINATION>44.9936</INCLINATION><RA_OF_ASC_NODE>112.0082</RA_OF_ASC_NODE><ARG_OF_PERICENTER>257.8372</ARG_OF_PERICENTER><MEAN_ANOMALY>129.8671</MEAN_ANOMALY></meanElements><tleParameters><EPHEMERIS_TYPE>0</EPHEMERIS_TYPE><CLASSIFICATION_TYPE>U</CLASSIFICATION_TYPE><NORAD_CAT_ID>25415</NORAD_CAT_ID><ELEMENT_SET_NO>999</ELEMENT_SET_NO><REV_AT_EPOCH>35150</REV_AT_EPOCH><BSTAR>.7859E-3</BSTAR><MEAN_MOTION_DOT>.216E-4</MEAN_MOTION_DOT><MEAN_MOTION_DDOT>0</MEAN_MOTION_DDOT></tleParameters></data></segment></body></omm>

</ndm>
